{
  "type": "FeatureCollection",
  "features": [
    {
      "type": "Feature",
      "properties": {
        "norad_id": 24946,
        "name": "IRIDIUM 33",
        "group": "iridium-33-debris",
        "lat": -55.92560048739284,
        "lon": -111.63208707984462,
        "alt_km": 780.577003986904,
        "timestamp": "2025-12-25T03:55:56.751299+00:00",
        "meta_object_name": "IRIDIUM 33",
        "meta_object_id": "1997-051C",
        "meta_epoch": "2025-12-24T16:47:43.897632",
        "meta_mean_motion": 14.3504533,
        "meta_eccentricity": 0.0008444,
        "meta_inclination": 86.3857,
        "meta_ra_of_asc_node": 63.2009,
        "meta_arg_of_pericenter": 161.6757,
        "meta_mean_anomaly": 198.4746,
        "meta_ephemeris_type": 0,
        "meta_classification_type": "U",
        "meta_norad_cat_id": 24946,
        "meta_element_set_no": 999,
        "meta_rev_at_epoch": 48006,
        "meta_bstar": 0.00011018,
        "meta_mean_motion_dot": 3.34e-06,
        "meta_mean_motion_ddot": 0,
        "tle_line1": "1 24946U 97051C   25358.69981363  .00000334  00000+0  11018-3 0  9998",
        "tle_line2": "2 24946  86.3857  63.2009 0008444 161.6757 198.4746 14.35045330480062"
      },
      "geometry": {
        "type": "Point",
        "coordinates": [
          -111.63208707984462,
          -55.92560048739284
        ]
      }
    },
    {
      "type": "Feature",
      "properties": {
        "norad_id": 33773,
        "name": "IRIDIUM 33 DEB",
        "group": "iridium-33-debris",
        "lat": -20.639483367451035,
        "lon": -123.31694832619414,
        "alt_km": 752.9938188163833,
        "timestamp": "2025-12-25T03:55:56.751338+00:00",
        "meta_object_name": "IRIDIUM 33 DEB",
        "meta_object_id": "1997-051L",
        "meta_epoch": "2025-12-24T15:21:35.097984",
        "meta_mean_motion": 14.4328098,
        "meta_eccentricity": 0.0013259,
        "meta_inclination": 86.3998,
        "meta_ra_of_asc_node": 55.5462,
        "meta_arg_of_pericenter": 112.2215,
        "meta_mean_anomaly": 248.0394,
        "meta_ephemeris_type": 0,
        "meta_classification_type": "U",
        "meta_norad_cat_id": 33773,
        "meta_element_set_no": 999,
        "meta_rev_at_epoch": 88519,
        "meta_bstar": 0.00028217,
        "meta_mean_motion_dot": 9.71e-06,
        "meta_mean_motion_ddot": 0,
        "tle_line1": "1 33773U 97051L   25358.63998956  .00000971  00000+0  28217-3 0  9992",
        "tle_line2": "2 33773  86.3998  55.5462 0013259 112.2215 248.0394 14.43280980885199"
      },
      "geometry": {
        "type": "Point",
        "coordinates": [
          -123.31694832619414,
          -20.639483367451035
        ]
      }
    },
    {
      "type": "Feature",
      "properties": {
        "norad_id": 33775,
        "name": "IRIDIUM 33 DEB",
        "group": "iridium-33-debris",
        "lat": -24.296158367311993,
        "lon": -134.1056563309982,
        "alt_km": 758.5359885734542,
        "timestamp": "2025-12-25T03:55:56.751354+00:00",
        "meta_object_name": "IRIDIUM 33 DEB",
        "meta_object_id": "1997-051N",
        "meta_epoch": "2025-12-24T15:53:08.204064",
        "meta_mean_motion": 14.41492712,
        "meta_eccentricity": 0.0015286,
        "meta_inclination": 86.3624,
        "meta_ra_of_asc_node": 44.463,
        "meta_arg_of_pericenter": 119.2178,
        "meta_mean_anomaly": 1.6875,
        "meta_ephemeris_type": 0,
        "meta_classification_type": "U",
        "meta_norad_cat_id": 33775,
        "meta_element_set_no": 999,
        "meta_rev_at_epoch": 88312,
        "meta_bstar": 0.00029916,
        "meta_mean_motion_dot": 9.92e-06,
        "meta_mean_motion_ddot": 0,
        "tle_line1": "1 33775U 97051N   25358.66190051  .00000992  00000+0  29916-3 0  9997",
        "tle_line2": "2 33775  86.3624  44.4630 0015286 119.2178   1.6875 14.41492712883122"
      },
      "geometry": {
        "type": "Point",
        "coordinates": [
          -134.1056563309982,
          -24.296158367311993
        ]
      }
    },
    {
      "type": "Feature",
      "properties": {
        "norad_id": 33776,
        "name": "IRIDIUM 33 DEB",
        "group": "iridium-33-debris",
        "lat": -70.3831532932006,
        "lon": 65.39334584553194,
        "alt_km": 780.013721093399,
        "timestamp": "2025-12-25T03:55:56.751367+00:00",
        "meta_object_name": "IRIDIUM 33 DEB",
        "meta_object_id": "1997-051P",
        "meta_epoch": "2025-12-24T17:06:29.634336",
        "meta_mean_motion": 14.38254982,
        "meta_eccentricity": 0.001568,
        "meta_inclination": 86.4031,
        "meta_ra_of_asc_node": 75.7477,
        "meta_arg_of_pericenter": 152.4095,
        "meta_mean_anomaly": 323.0984,
        "meta_ephemeris_type": 0,
        "meta_classification_type": "U",
        "meta_norad_cat_id": 33776,
        "meta_element_set_no": 999,
        "meta_rev_at_epoch": 88254,
        "meta_bstar": 0.00025628,
        "meta_mean_motion_dot": 7.99e-06,
        "meta_mean_motion_ddot": 0,
        "tle_line1": "1 33776U 97051P   25358.71284299  .00000799  00000+0  25628-3 0  9993",
        "tle_line2": "2 33776  86.4031  75.7477 0015680 152.4095 323.0984 14.38254982882545"
      },
      "geometry": {
        "type": "Point",
        "coordinates": [
          65.39334584553194,
          -70.3831532932006
        ]
      }
    },
    {
      "type": "Feature",
      "properties": {
        "norad_id": 33777,
        "name": "IRIDIUM 33 DEB",
        "group": "iridium-33-debris",
        "lat": 45.384422992969576,
        "lon": -153.88388473641956,
        "alt_km": 701.2450272182941,
        "timestamp": "2025-12-25T03:55:56.751379+00:00",
        "meta_object_name": "IRIDIUM 33 DEB",
        "meta_object_id": "1997-051Q",
        "meta_epoch": "2025-12-24T19:04:04.012032",
        "meta_mean_motion": 14.55693691,
        "meta_eccentricity": 0.0006279,
        "meta_inclination": 86.3772,
        "meta_ra_of_asc_node": 29.9584,
        "meta_arg_of_pericenter": 198.3661,
        "meta_mean_anomaly": 161.7321,
        "meta_ephemeris_type": 0,
        "meta_classification_type": "U",
        "meta_norad_cat_id": 33777,
        "meta_element_set_no": 999,
        "meta_rev_at_epoch": 88709,
        "meta_bstar": 0.00080567,
        "meta_mean_motion_dot": 3.541e-05,
        "meta_mean_motion_ddot": 0,
        "tle_line1": "1 33777U 97051Q   25358.79449088  .00003541  00000+0  80567-3 0  9992",
        "tle_line2": "2 33777  86.3772  29.9584 0006279 198.3661 161.7321 14.55693691887099"
      },
      "geometry": {
        "type": "Point",
        "coordinates": [
          -153.88388473641956,
          45.384422992969576
        ]
      }
    },
    {
      "type": "Feature",
      "properties": {
        "norad_id": 33850,
        "name": "IRIDIUM 33 DEB",
        "group": "iridium-33-debris",
        "lat": -35.47951844926316,
        "lon": -152.54886871640684,
        "alt_km": 757.9239791680984,
        "timestamp": "2025-12-25T03:55:56.751392+00:00",
        "meta_object_name": "IRIDIUM 33 DEB",
        "meta_object_id": "1997-051T",
        "meta_epoch": "2025-12-24T14:09:34.936416",
        "meta_mean_motion": 14.42175035,
        "meta_eccentricity": 0.001324,
        "meta_inclination": 86.3408,
        "meta_ra_of_asc_node": 25.0836,
        "meta_arg_of_pericenter": 125.8132,
        "meta_mean_anomaly": 351.9866,
        "meta_ephemeris_type": 0,
        "meta_classification_type": "U",
        "meta_norad_cat_id": 33850,
        "meta_element_set_no": 999,
        "meta_rev_at_epoch": 88323,
        "meta_bstar": 0.00039597,
        "meta_mean_motion_dot": 1.324e-05,
        "meta_mean_motion_ddot": 0,
        "tle_line1": "1 33850U 97051T   25358.58998769  .00001324  00000+0  39597-3 0  9990",
        "tle_line2": "2 33850  86.3408  25.0836 0013240 125.8132 351.9866 14.42175035883230"
      },
      "geometry": {
        "type": "Point",
        "coordinates": [
          -152.54886871640684,
          -35.47951844926316
        ]
      }
    },
    {
      "type": "Feature",
      "properties": {
        "norad_id": 33853,
        "name": "IRIDIUM 33 DEB",
        "group": "iridium-33-debris",
        "lat": 66.9394071896092,
        "lon": 154.90286423418038,
        "alt_km": 873.6799609970558,
        "timestamp": "2025-12-25T03:55:56.751405+00:00",
        "meta_object_name": "IRIDIUM 33 DEB",
        "meta_object_id": "1997-051W",
        "meta_epoch": "2025-12-24T05:08:01.366080",
        "meta_mean_motion": 13.99117235,
        "meta_eccentricity": 0.02076617,
        "meta_inclination": 86.0001,
        "meta_ra_of_asc_node": 344.7788,
        "meta_arg_of_pericenter": 200.434,
        "meta_mean_anomaly": 172.8166,
        "meta_ephemeris_type": 0,
        "meta_classification_type": "U",
        "meta_norad_cat_id": 33853,
        "meta_element_set_no": 999,
        "meta_rev_at_epoch": 85506,
        "meta_bstar": 0.0011765218,
        "meta_mean_motion_dot": 2.066e-05,
        "meta_mean_motion_ddot": 0,
        "tle_line1": "1 33853U 97051W   25358.21390470  .00002066  00000+0  11765-2 0  9998",
        "tle_line2": "2 33853  86.0001 344.7788 0207661 200.4340 172.8166 13.99117235855061"
      },
      "geometry": {
        "type": "Point",
        "coordinates": [
          154.90286423418038,
          66.9394071896092
        ]
      }
    }
  ]
}